STARLINK-2280
1 27861C 21021B   21325.14984919  .00001769  00000-0  11854-3 0  3258
2 27861  53.0559 112.5647 0001695  79.4121 194.9450 15.06394230    12
